{"type": "FeatureCollection", "features": [ {"type": "Feature", "properties": {"norad_id": 33492, "name": "GOSAT (IBUKI)", "group": "resource", "lat": -39.670407297072074, "lon": 113.45101119595184, "alt_km": 675.9860892279785, "timestamp": "2025-12-24T05:51:19.262355+00:00", "meta": {"OBJECT_NAME": "GOSAT (IBUKI)", "OBJECT_ID": "2009-002A", "EPOCH": "2025-12-23T21:51:22.128192", "MEAN_MOTION": 14.67545823, "ECCENTRICITY": 0.00010079, "INCLINATION": 98.0771, "RA_OF_ASC_NODE": 106.3588, "ARG_OF_PERICENTER": 104.2914, "MEAN_ANOMALY": 255.8402, "EPHEMERIS_TYPE": 0, "CLASSIFICATION_TYPE": "U", "NORAD_CAT_ID": 33492, "ELEMENT_SET_NO": 999, "REV_AT_EPOCH": 90575, "BSTAR": 0.00015385044, "MEAN_MOTION_DOT": 8.25e-06, "MEAN_MOTION_DDOT": 0}, "tle": {"line1": "1 33492U 09002A   25357.91067278  .00000825  00000+0  15385-3 0  9993", "line2": "2 33492  98.0771 106.3588 0001007 104.2914 255.8402 14.67545823905752"}}, "geometry": {"type": "Point", "coordinates": [113.45101119595184, -39.670407297072074]}}, {"type": "Feature", "properties": {"norad_id": 35681, "name": "DEIMOS-1", "group": "resource", "lat": -15.792425359619601, "lon": 160.50941746595507, "alt_km": 649.6586882272823, "timestamp": "2025-12-24T05:51:19.262366+00:00", "meta": {"OBJECT_NAME": "DEIMOS-1", "OBJECT_ID": "2009-041A", "EPOCH": "2025-12-23T23:24:53.517888", "MEAN_MOTION": 14.7497006, "ECCENTRICITY": 0.00025115, "INCLINATION": 97.7154, "RA_OF_ASC_NODE": 158.0562, "ARG_OF_PERICENTER": 61.6046, "MEAN_ANOMALY": 298.5417, "EPHEMERIS_TYPE": 0, "CLASSIFICATION_TYPE": "U", "NORAD_CAT_ID": 35681, "ELEMENT_SET_NO": 999, "REV_AT_EPOCH": 88105, "BSTAR": 0.00015484213, "MEAN_MOTION_DOT": 9.93e-06, "MEAN_MOTION_DDOT": 0}, "tle": {"line1": "1 35681U 09041A   25357.97561942  .00000993  00000+0  15484-3 0  9997", "line2": "2 35681  97.7154 158.0562 0002511  61.6046 298.5417 14.74970060881053"}}, "geometry": {"type": "Point", "coordinates": [160.50941746595507, -15.792425359619601]}}, {"type": "Feature", "properties": {"norad_id": 35682, "name": "DUBAISAT-1", "group": "resource", "lat": -80.6862936581237, "lon": -110.03991089935623, "alt_km": 647.2156808446962, "timestamp": "2025-12-24T05:51:19.262377+00:00", "meta": {"OBJECT_NAME": "DUBAISAT-1", "OBJECT_ID": "2009-041B", "EPOCH": "2025-12-23T20:30:47.661120", "MEAN_MOTION": 14.74633022, "ECCENTRICITY": 0.00092691, "INCLINATION": 97.9797, "RA_OF_ASC_NODE": 128.3713, "ARG_OF_PERICENTER": 274.5196, "MEAN_ANOMALY": 85.4953, "EPHEMERIS_TYPE": 0, "CLASSIFICATION_TYPE": "U", "NORAD_CAT_ID": 35682, "ELEMENT_SET_NO": 999, "REV_AT_EPOCH": 87925, "BSTAR": 0.00019286606, "MEAN_MOTION_DOT": 1.236e-05, "MEAN_MOTION_DDOT": 0}, "tle": {"line1": "1 35682U 09041B   25357.85471830  .00001236  00000+0  19287-3 0  9997", "line2": "2 35682  97.9797 128.3713 0009269 274.5196  85.4953 14.74633022879256"}}, "geometry": {"type": "Point", "coordinates": [-110.03991089935623, -80.6862936581237]}}, {"type": "Feature", "properties": {"norad_id": 35931, "name": "OCEANSAT-2", "group": "resource", "lat": -40.69247227979693, "lon": 170.53538986431522, "alt_km": 911.9740812434948, "timestamp": "2025-12-24T05:51:19.262388+00:00", "meta": {"OBJECT_NAME": "OCEANSAT-2", "OBJECT_ID": "2009-051A", "EPOCH": "2025-12-23T23:39:17.385696", "MEAN_MOTION": 13.99622883, "ECCENTRICITY": 0.00159236, "INCLINATION": 98.2218, "RA_OF_ASC_NODE": 357.4451, "ARG_OF_PERICENTER": 15.4983, "MEAN_ANOMALY": 344.6668, "EPHEMERIS_TYPE": 0, "CLASSIFICATION_TYPE": "U", "NORAD_CAT_ID": 35931, "ELEMENT_SET_NO": 999, "REV_AT_EPOCH": 85482, "BSTAR": -1.0622597e-05, "MEAN_MOTION_DOT": -5.3e-07, "MEAN_MOTION_DDOT": 0}, "tle": {"line1": "1 35931U 09051A   25357.98561789 -.00000053  00000+0 -10623-4 0  9996", "line2": "2 35931  98.2218 357.4451 0015923  15.4983 344.6668 13.99622883854827"}}, "geometry": {"type": "Point", "coordinates": [170.53538986431522, -40.69247227979693]}}, {"type": "Feature", "properties": {"norad_id": 35946, "name": "WORLDVIEW-2 (WV-2)", "group": "resource", "lat": 60.12641898003473, "lon": -95.78058555035113, "alt_km": 759.3541562978407, "timestamp": "2025-12-24T05:51:19.262399+00:00", "meta": {"OBJECT_NAME": "WORLDVIEW-2 (WV-2)", "OBJECT_ID": "2009-055A", "EPOCH": "2025-12-23T22:37:28.384032", "MEAN_MOTION": 14.37728805, "ECCENTRICITY": 0.00047694, "INCLINATION": 98.4773, "RA_OF_ASC_NODE": 68.8734, "ARG_OF_PERICENTER": 43.1968, "MEAN_ANOMALY": 316.9592, "EPHEMERIS_TYPE": 0, "CLASSIFICATION_TYPE": "U", "NORAD_CAT_ID": 35946, "ELEMENT_SET_NO": 999, "REV_AT_EPOCH": 85046, "BSTAR": 7.1129986e-05, "MEAN_MOTION_DOT": 1.7e-06, "MEAN_MOTION_DDOT": 0}, "tle": {"line1": "1 35946U 09055A   25357.94268963  .00000170  00000+0  71130-4 0  9998", "line2": "2 35946  98.4773  68.8734 0004769  43.1968 316.9592 14.37728805850463"}}, "geometry": {"type": "Point", "coordinates": [-95.78058555035113, 60.12641898003473]}}, {"type": "Feature", "properties": {"norad_id": 36036, "name": "SMOS", "group": "resource", "lat": -56.72128613201693, "lon": -9.949622325064, "alt_km": 767.0655178358256, "timestamp": "2025-12-24T05:51:19.262409+00:00", "meta": {"OBJECT_NAME": "SMOS", "OBJECT_ID": "2009-059A", "EPOCH": "2025-12-23T10:24:28.556640", "MEAN_MOTION": 14.3975039, "ECCENTRICITY": 0.00010549, "INCLINATION": 98.438, "RA_OF_ASC_NODE": 182.3237, "ARG_OF_PERICENTER": 83.5297, "MEAN_ANOMALY": 276.6011, "EPHEMERIS_TYPE": 0, "CLASSIFICATION_TYPE": "U", "NORAD_CAT_ID": 36036, "ELEMENT_SET_NO": 999, "REV_AT_EPOCH": 84816, "BSTAR": 0.00012930824, "MEAN_MOTION_DOT": 3.62e-06, "MEAN_MOTION_DDOT": 0}, "tle": {"line1": "1 36036U 09059A   25357.43366385  .00000362  00000+0  12931-3 0  9990", "line2": "2 36036  98.4380 182.3237 0001054  83.5297 276.6011 14.39750390848163"}}, "geometry": {"type": "Point", "coordinates": [-9.949622325064, -56.72128613201693]}}, {"type": "Feature", "properties": {"norad_id": 36110, "name": "YAOGAN-7", "group": "resource", "lat": -13.33011576429409, "lon": 58.04272559818383, "alt_km": 630.160829132732, "timestamp": "2025-12-24T05:51:19.262419+00:00", "meta": {"OBJECT_NAME": "YAOGAN-7", "OBJECT_ID": "2009-069A", "EPOCH": "2025-12-23T22:28:50.963808", "MEAN_MOTION": 14.77747994, "ECCENTRICITY": 0.00234259, "INCLINATION": 98.0295, "RA_OF_ASC_NODE": 239.6534, "ARG_OF_PERICENTER": 243.1093, "MEAN_ANOMALY": 116.7723, "EPHEMERIS_TYPE": 0, "CLASSIFICATION_TYPE": "U", "NORAD_CAT_ID": 36110, "ELEMENT_SET_NO": 999, "REV_AT_EPOCH": 86374, "BSTAR": 9.280503e-05, "MEAN_MOTION_DOT": 6.15e-06, "MEAN_MOTION_DDOT": 0}, "tle": {"line1": "1 36110U 09069A   25357.93670097  .00000615  00000+0  92805-4 0  9997", "line2": "2 36110  98.0295 239.6534 0023425 243.1093 116.7723 14.77747994863740"}}, "geometry": {"type": "Point", "coordinates": [58.04272559818383, -13.33011576429409]}}, {"type": "Feature", "properties": {"norad_id": 36605, "name": "TANDEM-X", "group": "resource", "lat": -8.841126170559896, "lon": 4.621374690291662, "alt_km": 512.7784378495244, "timestamp": "2025-12-24T05:51:19.262429+00:00", "meta": {"OBJECT_NAME": "TANDEM-X", "OBJECT_ID": "2010-030A", "EPOCH": "2025-12-23T10:55:27.931296", "MEAN_MOTION": 15.19148406, "ECCENTRICITY": 0.00017726, "INCLINATION": 97.4453, "RA_OF_ASC_NODE": 2.6785, "ARG_OF_PERICENTER": 93.7268, "MEAN_ANOMALY": 266.4169, "EPHEMERIS_TYPE": 0, "CLASSIFICATION_TYPE": "U", "NORAD_CAT_ID": 36605, "ELEMENT_SET_NO": 999, "REV_AT_EPOCH": 85996, "BSTAR": 4.175648e-05, "MEAN_MOTION_DOT": 8.1e-06, "MEAN_MOTION_DDOT": 0}, "tle": {"line1": "1 36605U 10030A   25357.45518439  .00000810  00000+0  41756-4 0  9990", "line2": "2 36605  97.4453   2.6785 0001772  93.7268 266.4169 15.19148406859964"}}, "geometry": {"type": "Point", "coordinates": [4.621374690291662, -8.841126170559896]}}, {"type": "Feature", "properties": {"norad_id": 36795, "name": "CARTOSAT-2B", "group": "resource", "lat": 17.84334288054117, "lon": -130.5770832900166, "alt_km": 638.0904341628548, "timestamp": "2025-12-24T05:51:19.262439+00:00", "meta": {"OBJECT_NAME": "CARTOSAT-2B", "OBJECT_ID": "2010-035A", "EPOCH": "2025-12-23T22:37:50.544768", "MEAN_MOTION": 14.78738629, "ECCENTRICITY": 0.00126513, "INCLINATION": 97.7835, "RA_OF_ASC_NODE": 46.6082, "ARG_OF_PERICENTER": 43.4577, "MEAN_ANOMALY": 316.763, "EPHEMERIS_TYPE": 0, "CLASSIFICATION_TYPE": "U", "NORAD_CAT_ID": 36795, "ELEMENT_SET_NO": 999, "REV_AT_EPOCH": 83395, "BSTAR": 3.127046e-05, "MEAN_MOTION_DOT": 1.8e-06, "MEAN_MOTION_DDOT": 0}, "tle": {"line1": "1 36795U 10035A   25357.94294612  .00000180  00000+0  31270-4 0  9993", "line2": "2 36795  97.7835  46.6082 0012651  43.4577 316.7630 14.78738629833951"}}, "geometry": {"type": "Point", "coordinates": [-130.5770832900166, 17.84334288054117]}}, {"type": "Feature", "properties": {"norad_id": 36834, "name": "YAOGAN-10", "group": "resource", "lat": 53.297804573094425, "lon": -151.2692039955507, "alt_km": 609.0361036400318, "timestamp": "2025-12-24T05:51:19.262450+00:00", "meta": {"OBJECT_NAME": "YAOGAN-10", "OBJECT_ID": "2010-038A", "EPOCH": "2025-12-23T23:13:04.255968", "MEAN_MOTION": 14.84648116, "ECCENTRICITY": 0.00013366, "INCLINATION": 97.9128, "RA_OF_ASC_NODE": 17.7031, "ARG_OF_PERICENTER": 81.6274, "MEAN_ANOMALY": 7.0021, "EPHEMERIS_TYPE": 0, "CLASSIFICATION_TYPE": "U", "NORAD_CAT_ID": 36834, "ELEMENT_SET_NO": 999, "REV_AT_EPOCH": 83120, "BSTAR": 0.00026813458, "MEAN_MOTION_DOT": 2.214e-05, "MEAN_MOTION_DDOT": 0}, "tle": {"line1": "1 36834U 10038A   25357.96741037  .00002214  00000+0  26813-3 0  9996", "line2": "2 36834  97.9128  17.7031 0001336  81.6274   7.0021 14.84648116831209"}}, "geometry": {"type": "Point", "coordinates": [-151.2692039955507, 53.297804573094425]}}]}